HIMAWARI-8              
1 40267U 14060A   24086.58912044 -.00000269  00000+0  00000+0 0  9999
2 40267   0.0219 179.1601 0000837 210.6232 147.4819  1.00272405 34611
